<?xml version="1.0" encoding="UTF-8"?>
<kml xmlns="http://www.opengis.net/kml/2.2" xmlns:atom="http://www.w3.org/2005/Atom" xmlns:gx="http://www.google.com/kml/ext/2.2" xmlns:kml="http://www.opengis.net/kml/2.2">
  <Folder>
    <name>J-RISQ地震速報</name>
    <Folder>
      <name>2026/07/28 16:40:13発表 （Ver.8 最終報 ）</name>
      <Folder>
        <name>震度曝露人口</name>
        <Folder>
          <name>震度6強</name>
          <GroundOverlay>
            <name>250mメッシュ別震度6強曝露人口_地図</name>
            <Icon>
              <href>http://www.j-risq.bosai.go.jp/report/wms?service=WMS&amp;version=1.1.1&amp;request=getmap&amp;layers=EP_ALL_DT_A_60_M250&amp;bbox=122,20,154,46&amp;srs=EPSG:4326&amp;width=1080&amp;height=1620&amp;transparent=true&amp;format=image/png&amp;triggerid=R-20260728162724&amp;report=0145&amp;ana=00001</href>
              <viewBoundScale>1.2</viewBoundScale>
              <viewRefreshMode>onStop</viewRefreshMode>
              <viewRefreshTime>1.0</viewRefreshTime>
            </Icon>
            <LatLonBox>
              <east>154</east>
              <north>46</north>
              <south>20</south>
              <west>122</west>
            </LatLonBox>
            <drawOrder>10</drawOrder>
            <visibility>0</visibility>
          </GroundOverlay>
          <GroundOverlay>
            <name>行政区別震度6強曝露人口_地図</name>
            <Icon>
              <href>http://www.j-risq.bosai.go.jp/report/wms?service=WMS&amp;version=1.1.1&amp;request=getmap&amp;layers=EP_ALL_DT_A_60_CITY&amp;bbox=122,20,154,46&amp;srs=EPSG:4326&amp;width=1080&amp;height=1620&amp;transparent=true&amp;format=image/png&amp;triggerid=R-20260728162724&amp;report=0145&amp;ana=00001</href>
              <viewBoundScale>1.2</viewBoundScale>
              <viewRefreshMode>onStop</viewRefreshMode>
              <viewRefreshTime>1.0</viewRefreshTime>
            </Icon>
            <LatLonBox>
              <east>154</east>
              <north>46</north>
              <south>20</south>
              <west>122</west>
            </LatLonBox>
            <drawOrder>9</drawOrder>
            <visibility>0</visibility>
          </GroundOverlay>
          <open>1</open>
          <visibility>0</visibility>
        </Folder>
        <Folder>
          <name>震度6弱</name>
          <GroundOverlay>
            <name>250mメッシュ別震度6弱曝露人口_地図</name>
            <Icon>
              <href>http://www.j-risq.bosai.go.jp/report/wms?service=WMS&amp;version=1.1.1&amp;request=getmap&amp;layers=EP_ALL_DT_A_55_M250&amp;bbox=122,20,154,46&amp;srs=EPSG:4326&amp;width=1080&amp;height=1620&amp;transparent=true&amp;format=image/png&amp;triggerid=R-20260728162724&amp;report=0145&amp;ana=00001</href>
              <viewBoundScale>1.2</viewBoundScale>
              <viewRefreshMode>onStop</viewRefreshMode>
              <viewRefreshTime>1.0</viewRefreshTime>
            </Icon>
            <LatLonBox>
              <east>154</east>
              <north>46</north>
              <south>20</south>
              <west>122</west>
            </LatLonBox>
            <drawOrder>8</drawOrder>
            <visibility>0</visibility>
          </GroundOverlay>
          <GroundOverlay>
            <name>行政区別震度6弱曝露人口_地図</name>
            <Icon>
              <href>http://www.j-risq.bosai.go.jp/report/wms?service=WMS&amp;version=1.1.1&amp;request=getmap&amp;layers=EP_ALL_DT_A_55_CITY&amp;bbox=122,20,154,46&amp;srs=EPSG:4326&amp;width=1080&amp;height=1620&amp;transparent=true&amp;format=image/png&amp;triggerid=R-20260728162724&amp;report=0145&amp;ana=00001</href>
              <viewBoundScale>1.2</viewBoundScale>
              <viewRefreshMode>onStop</viewRefreshMode>
              <viewRefreshTime>1.0</viewRefreshTime>
            </Icon>
            <LatLonBox>
              <east>154</east>
              <north>46</north>
              <south>20</south>
              <west>122</west>
            </LatLonBox>
            <drawOrder>7</drawOrder>
            <visibility>0</visibility>
          </GroundOverlay>
          <open>1</open>
          <visibility>0</visibility>
        </Folder>
        <Folder>
          <name>震度5強</name>
          <GroundOverlay>
            <name>250mメッシュ別震度5強曝露人口_地図</name>
            <Icon>
              <href>http://www.j-risq.bosai.go.jp/report/wms?service=WMS&amp;version=1.1.1&amp;request=getmap&amp;layers=EP_ALL_DT_A_50_M250&amp;bbox=122,20,154,46&amp;srs=EPSG:4326&amp;width=1080&amp;height=1620&amp;transparent=true&amp;format=image/png&amp;triggerid=R-20260728162724&amp;report=0145&amp;ana=00001</href>
              <viewBoundScale>1.2</viewBoundScale>
              <viewRefreshMode>onStop</viewRefreshMode>
              <viewRefreshTime>1.0</viewRefreshTime>
            </Icon>
            <LatLonBox>
              <east>154</east>
              <north>46</north>
              <south>20</south>
              <west>122</west>
            </LatLonBox>
            <drawOrder>6</drawOrder>
            <visibility>0</visibility>
          </GroundOverlay>
          <GroundOverlay>
            <name>行政区別震度5強曝露人口_地図</name>
            <Icon>
              <href>http://www.j-risq.bosai.go.jp/report/wms?service=WMS&amp;version=1.1.1&amp;request=getmap&amp;layers=EP_ALL_DT_A_50_CITY&amp;bbox=122,20,154,46&amp;srs=EPSG:4326&amp;width=1080&amp;height=1620&amp;transparent=true&amp;format=image/png&amp;triggerid=R-20260728162724&amp;report=0145&amp;ana=00001</href>
              <viewBoundScale>1.2</viewBoundScale>
              <viewRefreshMode>onStop</viewRefreshMode>
              <viewRefreshTime>1.0</viewRefreshTime>
            </Icon>
            <LatLonBox>
              <east>154</east>
              <north>46</north>
              <south>20</south>
              <west>122</west>
            </LatLonBox>
            <drawOrder>5</drawOrder>
            <visibility>0</visibility>
          </GroundOverlay>
          <open>1</open>
          <visibility>0</visibility>
        </Folder>
        <Folder>
          <name>震度5弱</name>
          <GroundOverlay>
            <name>250mメッシュ別震度5弱曝露人口_地図</name>
            <Icon>
              <href>http://www.j-risq.bosai.go.jp/report/wms?service=WMS&amp;version=1.1.1&amp;request=getmap&amp;layers=EP_ALL_DT_A_45_M250&amp;bbox=122,20,154,46&amp;srs=EPSG:4326&amp;width=1080&amp;height=1620&amp;transparent=true&amp;format=image/png&amp;triggerid=R-20260728162724&amp;report=0145&amp;ana=00001</href>
              <viewBoundScale>1.2</viewBoundScale>
              <viewRefreshMode>onStop</viewRefreshMode>
              <viewRefreshTime>1.0</viewRefreshTime>
            </Icon>
            <LatLonBox>
              <east>154</east>
              <north>46</north>
              <south>20</south>
              <west>122</west>
            </LatLonBox>
            <drawOrder>4</drawOrder>
            <visibility>0</visibility>
          </GroundOverlay>
          <GroundOverlay>
            <name>行政区別震度5弱曝露人口_地図</name>
            <Icon>
              <href>http://www.j-risq.bosai.go.jp/report/wms?service=WMS&amp;version=1.1.1&amp;request=getmap&amp;layers=EP_ALL_DT_A_45_CITY&amp;bbox=122,20,154,46&amp;srs=EPSG:4326&amp;width=1080&amp;height=1620&amp;transparent=true&amp;format=image/png&amp;triggerid=R-20260728162724&amp;report=0145&amp;ana=00001</href>
              <viewBoundScale>1.2</viewBoundScale>
              <viewRefreshMode>onStop</viewRefreshMode>
              <viewRefreshTime>1.0</viewRefreshTime>
            </Icon>
            <LatLonBox>
              <east>154</east>
              <north>46</north>
              <south>20</south>
              <west>122</west>
            </LatLonBox>
            <drawOrder>3</drawOrder>
            <visibility>0</visibility>
          </GroundOverlay>
          <open>1</open>
          <visibility>0</visibility>
        </Folder>
        <ScreenOverlay>
          <name>250mメッシュ別震度曝露人口_凡例</name>
          <Icon>
            <href>http://www.j-risq.bosai.go.jp/report/wms?service=WMS&amp;version=1.1.1&amp;request=getlegendgraphic&amp;layer=EP_ALL_NT_A_60_M250&amp;format=image/jpeg&amp;triggerid=R-20260728162724&amp;report=0145&amp;ana=00001</href>
          </Icon>
          <drawOrder>12</drawOrder>
          <overlayXY x="-112" xunits="pixels" y="1.0" yunits="fraction" />
          <rotation>0.0</rotation>
          <screenXY x="0.0" xunits="fraction" y="1.0" yunits="fraction" />
          <size x="0" xunits="fraction" y="0" yunits="fraction" />
          <visibility>1</visibility>
        </ScreenOverlay>
        <ScreenOverlay>
          <name>行政区別震度曝露人口_凡例</name>
          <Icon>
            <href>http://www.j-risq.bosai.go.jp/report/wms?service=WMS&amp;version=1.1.1&amp;request=getlegendgraphic&amp;layer=EP_ALL_NT_A_60_CITY&amp;format=image/jpeg&amp;triggerid=R-20260728162724&amp;report=0145&amp;ana=00001</href>
          </Icon>
          <drawOrder>11</drawOrder>
          <overlayXY x="-425" xunits="pixels" y="1.0" yunits="fraction" />
          <rotation>0.0</rotation>
          <screenXY x="0.0" xunits="fraction" y="1.0" yunits="fraction" />
          <size x="0" xunits="fraction" y="0" yunits="fraction" />
          <visibility>1</visibility>
        </ScreenOverlay>
        <open>1</open>
        <visibility>1</visibility>
      </Folder>
      <Folder>
        <name>推定震度</name>
        <GroundOverlay>
          <name>推定震度_地図</name>
          <Icon>
            <href>http://www.j-risq.bosai.go.jp/report/wms?service=WMS&amp;version=1.1.1&amp;request=getmap&amp;layers=GSI_M250&amp;bbox=122,20,154,46&amp;srs=EPSG:4326&amp;width=1080&amp;height=1620&amp;transparent=true&amp;format=image/png&amp;triggerid=R-20260728162724&amp;report=0145&amp;ana=00001</href>
            <viewBoundScale>1.2</viewBoundScale>
            <viewRefreshMode>onStop</viewRefreshMode>
            <viewRefreshTime>1.0</viewRefreshTime>
          </Icon>
          <LatLonBox>
            <east>154</east>
            <north>46</north>
            <south>20</south>
            <west>122</west>
          </LatLonBox>
          <drawOrder>1</drawOrder>
          <visibility>1</visibility>
        </GroundOverlay>
        <ScreenOverlay>
          <name>推定震度_凡例</name>
          <Icon>
            <href>http://www.j-risq.bosai.go.jp/report/wms?service=WMS&amp;version=1.1.1&amp;request=getlegendgraphic&amp;layer=GSI_M250&amp;format=image/jpeg&amp;triggerid=R-20260728162724&amp;report=0145&amp;ana=00001</href>
          </Icon>
          <drawOrder>2</drawOrder>
          <overlayXY x="0.0" xunits="pixels" y="1.0" yunits="fraction" />
          <rotation>0.0</rotation>
          <screenXY x="0.0" xunits="fraction" y="1.0" yunits="fraction" />
          <size x="0" xunits="fraction" y="0" yunits="fraction" />
          <visibility>1</visibility>
        </ScreenOverlay>
        <description>								
         250mメッシュ毎の推定震度です。
      </description>
        <open>1</open>
        <visibility>1</visibility>
      </Folder>
      <description>（気象庁 発表）
2026/07/28 16:27頃発生
震源地：熊本県熊本地方
震源の深さ：約10km
マグニチュード：7.1
</description>
      <open>1</open>
      <visibility>1</visibility>
    </Folder>
    <LookAt>
      <altitude>0</altitude>
      <altitudeMode>relativeToGround</altitudeMode>
      <heading>0.0</heading>
      <latitude>35.0</latitude>
      <longitude>135.0</longitude>
      <range>2000000</range>
      <tilt>0</tilt>
    </LookAt>
    <color>b8ffffff</color>
    <open>1</open>
  </Folder>
</kml>
