{"type":"FeatureCollection","name":"令和8年熊本地震_SAR変位不連続判読結果（暫定2026-08-05）","crs":{"type":"name","properties":{"name":"urn:ogc:def:crs:OGC:1.3:CRS84"}},"features":[{"type":"Feature","properties":{"判読ID":1,"_color":"#ff2ec4","_weight":3,"_opacity":1},"geometry":{"type":"MultiLineString","coordinates":[[[130.63293,32.49233],[130.63489,32.49338],[130.63957,32.49638],[130.64021,32.49885],[130.64223,32.50118],[130.64604,32.5018],[130.64741,32.50385],[130.64952,32.5064],[130.65122,32.50893],[130.65255,32.51117],[130.65723,32.51899],[130.66425,32.53124],[130.66731,32.534],[130.66731,32.53583],[130.66918,32.53825],[130.67162,32.54018],[130.67445,32.5408],[130.67697,32.54391],[130.67735,32.54572],[130.67854,32.54774],[130.6798,32.55083],[130.68251,32.55347],[130.68403,32.55568],[130.68669,32.56181],[130.68887,32.56627],[130.69088,32.56961],[130.69164,32.57171],[130.69273,32.57337],[130.69478,32.57665],[130.6976,32.58029],[130.70148,32.58217],[130.70372,32.5834],[130.70481,32.58402],[130.70643,32.58445],[130.7088,32.58609],[130.70956,32.58772],[130.71183,32.58896],[130.71173,32.59295],[130.71575,32.59771],[130.71605,32.5999],[130.71874,32.6007],[130.72012,32.60218],[130.72089,32.60391],[130.72174,32.60623],[130.7262,32.61282],[130.73022,32.61899],[130.73215,32.62105],[130.73278,32.62357],[130.7353,32.62777],[130.73658,32.6346],[130.73792,32.63677],[130.739,32.63794],[130.74102,32.63983],[130.74266,32.64154],[130.74404,32.64359],[130.74528,32.64611],[130.74558,32.649],[130.74774,32.65092]]]}},{"type":"Feature","properties":{"判読ID":2,"_color":"#ff2ec4","_weight":3,"_opacity":1},"geometry":{"type":"MultiLineString","coordinates":[[[130.71108,32.59275],[130.70838,32.59265],[130.70603,32.59223],[130.70449,32.59133],[130.70313,32.58992]]]}},{"type":"Feature","properties":{"判読ID":10,"_color":"#ff2ec4","_weight":3,"_opacity":1},"geometry":{"type":"MultiLineString","coordinates":[[[130.62944,32.48995],[130.62709,32.48851],[130.62457,32.48692],[130.62216,32.48554],[130.62002,32.48497]]]}},{"type":"Feature","properties":{"判読ID":11,"_color":"#ff2ec4","_weight":3,"_opacity":1},"geometry":{"type":"MultiLineString","coordinates":[[[130.61987,32.48494],[130.61727,32.48326],[130.61602,32.48254],[130.61494,32.48188],[130.61473,32.48117],[130.61392,32.48033],[130.61298,32.47992],[130.61131,32.47839],[130.60878,32.47702],[130.60295,32.47579]]]}},{"type":"Feature","properties":{"判読ID":20,"_color":"#ff2ec4","_weight":3,"_opacity":1},"geometry":{"type":"MultiLineString","coordinates":[[[130.79031,32.72269],[130.78783,32.71587],[130.78692,32.71446],[130.78604,32.71292],[130.78551,32.71153],[130.78512,32.7106],[130.78431,32.70964],[130.78347,32.70885],[130.78305,32.7078],[130.78193,32.70654]]]}},{"type":"Feature","properties":{"判読ID":21,"_color":"#ff2ec4","_weight":3,"_opacity":1},"geometry":{"type":"MultiLineString","coordinates":[[[130.77431,32.72005],[130.77535,32.71934],[130.77609,32.71865],[130.77671,32.71791],[130.77718,32.71713],[130.77775,32.71658],[130.77885,32.71622],[130.77949,32.71556],[130.78127,32.71494]]]}},{"type":"Feature","properties":{"判読ID":22,"_color":"#ff2ec4","_weight":3,"_opacity":1},"geometry":{"type":"MultiLineString","coordinates":[[[130.77225,32.69576],[130.77038,32.69423]]]}},{"type":"Feature","properties":{"判読ID":22,"_color":"#ff2ec4","_weight":3,"_opacity":1},"geometry":{"type":"MultiLineString","coordinates":[[[130.75569,32.68306],[130.75835,32.6831],[130.76035,32.68248],[130.76192,32.68244],[130.76387,32.68153],[130.76624,32.68149],[130.76696,32.68177]]]}},{"type":"Feature","properties":{"判読ID":22,"_color":"#ff2ec4","_weight":3,"_opacity":1},"geometry":{"type":"MultiLineString","coordinates":[[[130.76225,32.6922],[130.76376,32.69229]]]}},{"type":"Feature","properties":{"判読ID":23,"_color":"#ff2ec4","_weight":3,"_opacity":1},"geometry":{"type":"MultiLineString","coordinates":[[[130.76457,32.67985],[130.76405,32.67851],[130.76238,32.67733],[130.76229,32.67647],[130.76309,32.67557],[130.76333,32.67419],[130.76328,32.67247],[130.76305,32.67138],[130.76257,32.67043],[130.76205,32.66981],[130.76157,32.66791]]]}},{"type":"Feature","properties":{"判読ID":23,"_color":"#ff2ec4","_weight":3,"_opacity":1},"geometry":{"type":"MultiLineString","coordinates":[[[130.76159,32.66634],[130.76071,32.66434],[130.75929,32.66263],[130.75697,32.66074],[130.75624,32.66031],[130.75506,32.65906],[130.75348,32.65765],[130.75308,32.65695],[130.75183,32.65439],[130.75056,32.65335],[130.74958,32.65241],[130.74811,32.65119]]]}},{"type":"Feature","properties":{"判読ID":23,"_color":"#ff2ec4","_weight":3,"_opacity":1},"geometry":{"type":"MultiLineString","coordinates":[[[130.75864,32.67357],[130.7573,32.67217],[130.75568,32.67062],[130.7542,32.66943],[130.75268,32.66834],[130.75055,32.66676],[130.75059,32.66529],[130.75014,32.66454],[130.74916,32.66413],[130.74869,32.66206],[130.74836,32.66104],[130.74777,32.66021],[130.74718,32.65923],[130.74659,32.6551],[130.74533,32.65276]]]}},{"type":"Feature","properties":{"判読ID":23,"_color":"#ff2ec4","_weight":3,"_opacity":1},"geometry":{"type":"MultiLineString","coordinates":[[[130.75188,32.65669],[130.75219,32.65619]]]}},{"type":"Feature","properties":{"判読ID":23,"_color":"#ff2ec4","_weight":3,"_opacity":1},"geometry":{"type":"MultiLineString","coordinates":[[[130.75115,32.65553],[130.75182,32.65511]]]}},{"type":"Feature","properties":{"判読ID":23,"_color":"#ff2ec4","_weight":3,"_opacity":1},"geometry":{"type":"MultiLineString","coordinates":[[[130.72055,32.61876],[130.72336,32.61919],[130.7274,32.62024]]]}},{"type":"Feature","properties":{"判読ID":30,"_color":"#ff2ec4","_weight":3,"_opacity":1},"geometry":{"type":"MultiLineString","coordinates":[[[130.602,32.47648],[130.60271,32.47524],[130.6038,32.47415],[130.6058,32.47348]]]}},{"type":"Feature","properties":{"判読ID":24,"_color":"#ff2ec4","_weight":3,"_opacity":1},"geometry":{"type":"MultiLineString","coordinates":[[[130.72364,32.64694],[130.73572,32.6437]]]}},{"type":"Feature","properties":{"判読ID":40,"_color":"#ff2ec4","_weight":3,"_opacity":1},"geometry":{"type":"MultiLineString","coordinates":[[[130.61767,32.48218],[130.61895,32.48212]]]}},{"type":"Feature","properties":{"判読ID":41,"_color":"#ff2ec4","_weight":3,"_opacity":1},"geometry":{"type":"MultiLineString","coordinates":[[[130.62633,32.48639],[130.6252,32.48569],[130.6249,32.48506],[130.62433,32.4847],[130.62294,32.484]]]}},{"type":"Feature","properties":{"判読ID":50,"_color":"#ff2ec4","_weight":3,"_opacity":1},"geometry":{"type":"MultiLineString","coordinates":[[[130.60778,32.47209],[130.61858,32.47959]]]}},{"type":"Feature","properties":{"判読ID":33,"_color":"#ff2ec4","_weight":3,"_opacity":1},"geometry":{"type":"MultiLineString","coordinates":[[[130.73068,32.63375],[130.73747,32.63573]]]}},{"type":"Feature","properties":{"判読ID":55,"_color":"#ff2ec4","_weight":3,"_opacity":1},"geometry":{"type":"MultiLineString","coordinates":[[[130.79531,32.73767],[130.79485,32.73489],[130.79439,32.7328],[130.79358,32.73035]]]}},{"type":"Feature","properties":{"判読ID":55,"_color":"#ff2ec4","_weight":3,"_opacity":1},"geometry":{"type":"MultiLineString","coordinates":[[[130.74738,32.65559],[130.74852,32.65485]]]}},{"type":"Feature","properties":{"判読ID":55,"_color":"#ff2ec4","_weight":3,"_opacity":1},"geometry":{"type":"MultiLineString","coordinates":[[[130.7455,32.6525],[130.74684,32.65196],[130.74779,32.65129]]]}},{"type":"Feature","properties":{"判読ID":56,"_color":"#ff2ec4","_weight":3,"_opacity":1},"geometry":{"type":"MultiLineString","coordinates":[[[130.71226,32.59308],[130.71575,32.59496]]]}}]}